CCSDS_OMM_VERS = 2.0
CREATION_DATE  = 
ORIGINATOR     = 

OBJECT_NAME    = UNKNOWN
OBJECT_ID      = 
CENTER_NAME    = EARTH
REF_FRAME      = TEME
TIME_SYSTEM    = UTC
MEAN_ELEMENT_THEORY = SGP/SGP4

EPOCH          = 2026-02-07T19:35:44.830176
MEAN_MOTION    = 13.70367793
ECCENTRICITY   = .0419309
INCLINATION    = 66.5956
RA_OF_ASC_NODE = 308.1100
ARG_OF_PERICENTER = 18.0017
MEAN_ANOMALY   = 343.5398

EPHEMERIS_TYPE = 0
CLASSIFICATION_TYPE = U
NORAD_CAT_ID   = 87320
ELEMENT_SET_NO = 999
REV_AT_EPOCH   = 60156
BSTAR          = .20893E-2
MEAN_MOTION_DOT = .3374E-4
MEAN_MOTION_DDOT = 0

CCSDS_OMM_VERS = 2.0
CREATION_DATE  = 
ORIGINATOR     = 

OBJECT_NAME    = UNKNOWN
OBJECT_ID      = 
CENTER_NAME    = EARTH
REF_FRAME      = TEME
TIME_SYSTEM    = UTC
MEAN_ELEMENT_THEORY = SGP/SGP4

EPOCH          = 2026-02-12T14:22:32.846592
MEAN_MOTION    = 14.09543801
ECCENTRICITY   = .0066375
INCLINATION    = 90.0061
RA_OF_ASC_NODE = 271.6860
ARG_OF_PERICENTER = 39.2490
MEAN_ANOMALY   = 321.3479

EPHEMERIS_TYPE = 0
CLASSIFICATION_TYPE = U
NORAD_CAT_ID   = 87334
ELEMENT_SET_NO = 999
REV_AT_EPOCH   = 39535
BSTAR          = .96693E-2
MEAN_MOTION_DOT = .17295E-3
MEAN_MOTION_DDOT = 0

CCSDS_OMM_VERS = 2.0
CREATION_DATE  = 
ORIGINATOR     = 

OBJECT_NAME    = UNKNOWN
OBJECT_ID      = 
CENTER_NAME    = EARTH
REF_FRAME      = TEME
TIME_SYSTEM    = UTC
MEAN_ELEMENT_THEORY = SGP/SGP4

EPOCH          = 2026-02-12T14:20:45.852288
MEAN_MOTION    = 14.09685214
ECCENTRICITY   = .0085833
INCLINATION    = 89.9949
RA_OF_ASC_NODE = 267.8954
ARG_OF_PERICENTER = 20.5749
MEAN_ANOMALY   = 339.8857

EPHEMERIS_TYPE = 0
CLASSIFICATION_TYPE = U
NORAD_CAT_ID   = 87335
ELEMENT_SET_NO = 999
REV_AT_EPOCH   = 39568
BSTAR          = .82857E-2
MEAN_MOTION_DOT = .15061E-3
MEAN_MOTION_DDOT = 0

CCSDS_OMM_VERS = 2.0
CREATION_DATE  = 
ORIGINATOR     = 

OBJECT_NAME    = UNKNOWN
OBJECT_ID      = 
CENTER_NAME    = EARTH
REF_FRAME      = TEME
TIME_SYSTEM    = UTC
MEAN_ELEMENT_THEORY = SGP/SGP4

EPOCH          = 2026-02-12T07:56:55.565088
MEAN_MOTION    = 13.96662455
ECCENTRICITY   = .0058371
INCLINATION    = 82.7514
RA_OF_ASC_NODE = 11.5132
ARG_OF_PERICENTER = 150.3615
MEAN_ANOMALY   = 210.0883

EPHEMERIS_TYPE = 0
CLASSIFICATION_TYPE = U
NORAD_CAT_ID   = 87405
ELEMENT_SET_NO = 999
REV_AT_EPOCH   = 61975
BSTAR          = .17768E-2
MEAN_MOTION_DOT = .2513E-4
MEAN_MOTION_DDOT = 0

CCSDS_OMM_VERS = 2.0
CREATION_DATE  = 
ORIGINATOR     = 

OBJECT_NAME    = UNKNOWN
OBJECT_ID      = 
CENTER_NAME    = EARTH
REF_FRAME      = TEME
TIME_SYSTEM    = UTC
MEAN_ELEMENT_THEORY = SGP/SGP4

EPOCH          = 2026-02-10T08:28:41.752992
MEAN_MOTION    = 14.30377243
ECCENTRICITY   = .0068797
INCLINATION    = 65.7828
RA_OF_ASC_NODE = 172.8343
ARG_OF_PERICENTER = 266.4074
MEAN_ANOMALY   = 123.1796

EPHEMERIS_TYPE = 0
CLASSIFICATION_TYPE = U
NORAD_CAT_ID   = 87426
ELEMENT_SET_NO = 999
REV_AT_EPOCH   = 63111
BSTAR          = .20199E-2
MEAN_MOTION_DOT = .5307E-4
MEAN_MOTION_DDOT = 0

CCSDS_OMM_VERS = 2.0
CREATION_DATE  = 
ORIGINATOR     = 

OBJECT_NAME    = UNKNOWN
OBJECT_ID      = 
CENTER_NAME    = EARTH
REF_FRAME      = TEME
TIME_SYSTEM    = UTC
MEAN_ELEMENT_THEORY = SGP/SGP4

EPOCH          = 2026-02-06T01:14:40.419744
MEAN_MOTION    = 13.90793383
ECCENTRICITY   = .0063234
INCLINATION    = 100.4525
RA_OF_ASC_NODE = 255.4068
ARG_OF_PERICENTER = 59.9625
MEAN_ANOMALY   = 300.7782

EPHEMERIS_TYPE = 0
CLASSIFICATION_TYPE = U
NORAD_CAT_ID   = 87448
ELEMENT_SET_NO = 999
REV_AT_EPOCH   = 61692
BSTAR          = .12907E-2
MEAN_MOTION_DOT = .1586E-4
MEAN_MOTION_DDOT = 0

CCSDS_OMM_VERS = 2.0
CREATION_DATE  = 
ORIGINATOR     = 

OBJECT_NAME    = UNKNOWN
OBJECT_ID      = 
CENTER_NAME    = EARTH
REF_FRAME      = TEME
TIME_SYSTEM    = UTC
MEAN_ELEMENT_THEORY = SGP/SGP4

EPOCH          = 2026-02-06T02:28:17.965344
MEAN_MOTION    = 14.14815170
ECCENTRICITY   = .0509685
INCLINATION    = 65.7762
RA_OF_ASC_NODE = 303.9076
ARG_OF_PERICENTER = 336.5491
MEAN_ANOMALY   = 21.3061

EPHEMERIS_TYPE = 0
CLASSIFICATION_TYPE = U
NORAD_CAT_ID   = 87456
ELEMENT_SET_NO = 999
REV_AT_EPOCH   = 61932
BSTAR          = .20425E-2
MEAN_MOTION_DOT = .14232E-3
MEAN_MOTION_DDOT = 0

CCSDS_OMM_VERS = 2.0
CREATION_DATE  = 
ORIGINATOR     = 

OBJECT_NAME    = UNKNOWN
OBJECT_ID      = 
CENTER_NAME    = EARTH
REF_FRAME      = TEME
TIME_SYSTEM    = UTC
MEAN_ELEMENT_THEORY = SGP/SGP4

EPOCH          = 2026-02-12T14:12:24.257952
MEAN_MOTION    = 13.61840426
ECCENTRICITY   = .0675202
INCLINATION    = 65.8215
RA_OF_ASC_NODE = 82.0543
ARG_OF_PERICENTER = 276.9785
MEAN_ANOMALY   = 160.5715

EPHEMERIS_TYPE = 0
CLASSIFICATION_TYPE = U
NORAD_CAT_ID   = 87517
ELEMENT_SET_NO = 999
REV_AT_EPOCH   = 60133
BSTAR          = .15781E-2
MEAN_MOTION_DOT = .5788E-4
MEAN_MOTION_DDOT = 0

CCSDS_OMM_VERS = 2.0
CREATION_DATE  = 
ORIGINATOR     = 

OBJECT_NAME    = UNKNOWN
OBJECT_ID      = 
CENTER_NAME    = EARTH
REF_FRAME      = TEME
TIME_SYSTEM    = UTC
MEAN_ELEMENT_THEORY = SGP/SGP4

EPOCH          = 2026-02-04T01:57:01.388448
MEAN_MOTION    = 13.35605353
ECCENTRICITY   = .0059789
INCLINATION    = 99.6999
RA_OF_ASC_NODE = 251.3175
ARG_OF_PERICENTER = 132.8611
MEAN_ANOMALY   = 19.4017

EPHEMERIS_TYPE = 0
CLASSIFICATION_TYPE = U
NORAD_CAT_ID   = 87541
ELEMENT_SET_NO = 999
REV_AT_EPOCH   = 58915
BSTAR          = .17494E-3
MEAN_MOTION_DOT = .49E-6
MEAN_MOTION_DDOT = 0

CCSDS_OMM_VERS = 2.0
CREATION_DATE  = 
ORIGINATOR     = 

OBJECT_NAME    = UNKNOWN
OBJECT_ID      = 
CENTER_NAME    = EARTH
REF_FRAME      = TEME
TIME_SYSTEM    = UTC
MEAN_ELEMENT_THEORY = SGP/SGP4

EPOCH          = 2026-02-02T23:40:46.389792
MEAN_MOTION    = 13.53777173
ECCENTRICITY   = .0695344
INCLINATION    = 65.6659
RA_OF_ASC_NODE = 229.3976
ARG_OF_PERICENTER = 204.3170
MEAN_ANOMALY   = 152.3562

EPHEMERIS_TYPE = 0
CLASSIFICATION_TYPE = U
NORAD_CAT_ID   = 87553
ELEMENT_SET_NO = 999
REV_AT_EPOCH   = 59832
BSTAR          = .10206E-2
MEAN_MOTION_DOT = .3288E-4
MEAN_MOTION_DDOT = 0

CCSDS_OMM_VERS = 2.0
CREATION_DATE  = 
ORIGINATOR     = 

OBJECT_NAME    = UNKNOWN
OBJECT_ID      = 
CENTER_NAME    = EARTH
REF_FRAME      = TEME
TIME_SYSTEM    = UTC
MEAN_ELEMENT_THEORY = SGP/SGP4

EPOCH          = 2026-02-09T10:33:26.165952
MEAN_MOTION    = 13.28345538
ECCENTRICITY   = .0071906
INCLINATION    = 101.7563
RA_OF_ASC_NODE = 268.6226
ARG_OF_PERICENTER = 260.7539
MEAN_ANOMALY   = 98.5438

EPHEMERIS_TYPE = 0
CLASSIFICATION_TYPE = U
NORAD_CAT_ID   = 87557
ELEMENT_SET_NO = 999
REV_AT_EPOCH   = 57282
BSTAR          = .82704E-2
MEAN_MOTION_DOT = .3769E-4
MEAN_MOTION_DDOT = 0

CCSDS_OMM_VERS = 2.0
CREATION_DATE  = 
ORIGINATOR     = 

OBJECT_NAME    = UNKNOWN
OBJECT_ID      = 
CENTER_NAME    = EARTH
REF_FRAME      = TEME
TIME_SYSTEM    = UTC
MEAN_ELEMENT_THEORY = SGP/SGP4

EPOCH          = 2026-02-07T03:14:42.556992
MEAN_MOTION    = 12.32164700
ECCENTRICITY   = .0176015
INCLINATION    = 102.0028
RA_OF_ASC_NODE = 99.0990
ARG_OF_PERICENTER = 189.8625
MEAN_ANOMALY   = 202.9146

EPHEMERIS_TYPE = 0
CLASSIFICATION_TYPE = U
NORAD_CAT_ID   = 87561
ELEMENT_SET_NO = 999
REV_AT_EPOCH   = 54938
BSTAR          = .40033E-3
MEAN_MOTION_DOT = .7E-7
MEAN_MOTION_DDOT = 0

