UNKNOWN                 
1 87320U          26038.81649109  .00003374  00000+0  20893-2 0  9997
2 87320  66.5956 308.1100 0419309  18.0017 343.5398 13.70367793601564
UNKNOWN                 
1 87334U          26043.59899128  .00017295  00000+0  96693-2 0  9999
2 87334  90.0061 271.6860 0066375  39.2490 321.3479 14.09543801395356
UNKNOWN                 
1 87335U          26043.59775292  .00015061  00000+0  82857-2 0  9991
2 87335  89.9949 267.8954 0085833  20.5749 339.8857 14.09685214395685
UNKNOWN                 
1 87405U          26043.33119867  .00002513  00000+0  17768-2 0  9998
2 87405  82.7514  11.5132 0058371 150.3615 210.0883 13.96662455619758
UNKNOWN                 
1 87426U          26041.35326103  .00005307  00000+0  20199-2 0  9990
2 87426  65.7828 172.8343 0068797 266.4074 123.1796 14.30377243631114
UNKNOWN                 
1 87448U          26037.05185671  .00001586  00000+0  12907-2 0  9992
2 87448 100.4525 255.4068 0063234  59.9625 300.7782 13.90793383616921
UNKNOWN                 
1 87456U          26037.10298571  .00014232  00000+0  20425-2 0  9997
2 87456  65.7762 303.9076 0509685 336.5491  21.3061 14.14815170619323
UNKNOWN                 
1 87517U          26043.59194743  .00005788  00000+0  15781-2 0  9996
2 87517  65.8215  82.0543 0675202 276.9785 160.5715 13.61840426601338
UNKNOWN                 
1 87541U          26035.08126607  .00000049  00000+0  17494-3 0  9991
2 87541  99.6999 251.3175 0059789 132.8611  19.4017 13.35605353589156
UNKNOWN                 
1 87553U          26033.98664803  .00003288  00000+0  10206-2 0  9997
2 87553  65.6659 229.3976 0695344 204.3170 152.3562 13.53777173598328
UNKNOWN                 
1 87557U          26040.43988618  .00003769  00000+0  82704-2 0  9998
2 87557 101.7563 268.6226 0071906 260.7539  98.5438 13.28345538572827
UNKNOWN                 
1 87561U          26038.13521478  .00000007  00000+0  40033-3 0  9996
2 87561 102.0028  99.0990 0176015 189.8625 202.9146 12.32164700549386
